DUPLEX                  
1 66906U 98067XS  26090.34544201  .00030598  00000+0  41041-3 0  9994
2 66906  51.6297 321.0191 0003031 212.0904 147.9904 15.57674080 18502
ISS OBJECT XT           
1 66907U 98067XT  26089.99206508  .00266250  00000+0  15250-2 0  9997
2 66907  51.6233 316.3688 0006496 218.8764 141.1770 15.77474142 18536
ISS OBJECT XU           
1 66908U 98067XU  26090.87452862  .00259788  00000+0  14413-2 0  9991
2 66908  51.6233 311.7557 0006865 224.5845 135.4604 15.78203019 18676
SILVERSAT               
1 66909U 98067XV  26089.99737683  .00407567  00000+0  17359-2 0  9992
2 66909  51.6200 314.8852 0007665 225.3563 134.6816 15.83552073 18554
ISS OBJECT XW           
1 66910U 98067XW  26090.88898361  .00206554  00000+0  12591-2 0  9991
2 66910  51.6213 311.8494 0006882 221.1915 138.8566 15.76237796 18679
ISS OBJECT XX           
1 66911U 98067XX  26090.87125946  .00604420  15627-3  17627-2 0  9997
2 66911  51.6169 308.6766 0009955 236.6927 123.3127 15.92173368 18702
ISS OBJECT XY           
1 66912U 98067XY  26090.66283307  .00122078  00000+0  10540-2 0  9997
2 66912  51.6260 315.6247 0004573 218.0977 141.9696 15.68327986 18591
KNACKSAT-2              
1 67683U 98067XZ  26090.67423866  .00045389  00000+0  69855-3 0  9993
2 67683  51.6317 322.4656 0010228 266.1257  93.8564 15.53694167  8207
CORAL                   
1 67684U 98067YA  26090.66268081  .00098120  00000+0  12626-2 0  9993
2 67684  51.6295 321.6392 0013085 255.9556 103.9982 15.58165939  8216
GXIBA-1                 
1 67685U 98067YB  26090.34173012  .00049521  00000+0  74561-3 0  9996
2 67685  51.6317 323.9961 0012138 261.6169  98.3445 15.54234510  8153
UITMSAT-2               
1 67686U 98067YC  26090.90382428  .00063854  00000+0  92140-3 0  9990
2 67686  51.6313 321.0012 0009315 236.8226 123.1872 15.55321740  8241
HMU-SAT2                
1 67687U 98067YD  26090.66861119  .00050751  00000+0  77128-3 0  9994
2 67687  51.6312 322.4319 0008740 238.7051 121.3084 15.54008346  8129
LEOPARD                 
1 67688U 98067YE  26090.65429145  .00058871  00000+0  86636-3 0  9998
2 67688  51.6312 322.3359 0008949 236.2824 123.7315 15.54824398  8121
CREW DRAGON 12          
1 67796U 26031A   26090.84291376  .00010633  00000+0  20301-3 0  9995
2 67796  51.6336 322.8401 0006220 256.5772 103.4524 15.48686199559729
PROGRESS-MS 33          
1 68319U 26058A   26090.84291376  .00010633  00000+0  20301-3 0  9996
2 68319  51.6336 322.8401 0006220 256.5772 103.4524 15.48686199  1239
